IRIDIUM 7 [-]           
1 24793U 97020B   23300.85546442  .00000582  00000+0  19799-3 0  9991
2 24793  86.3954  67.5050 0001859  89.6890 270.4520 14.34948005386069
IRIDIUM 5 [-]           
1 24795U 97020D   23301.41883619  .00004523  00000+0  45071-3 0  9997
2 24795  86.3973 356.9770 0129809 107.4052 254.1414 14.85139672396522
IRIDIUM 4 [-]           
1 24796U 97020E   23300.87156331  .00000539  00000+0  17932-3 0  9999
2 24796  86.3955  64.7725 0002119  88.2349 271.9090 14.35854638386613
IRIDIUM 914 [-]         
1 24836U 97030A   23301.45414867  .00000815  00000+0  25443-3 0  9994
2 24836  86.3914  74.8797 0003437  62.9102 297.2447 14.39664811383197
IRIDIUM 16 [-]          
1 24841U 97030F   23301.50598988  .00000788  00000+0  25660-3 0  9993
2 24841  86.3990  96.2508 0001496 161.0817 199.0436 14.37552969381364
IRIDIUM 911 [-]         
1 24842U 97030G   23300.87601813  .00000936  00000+0  25682-3 0  9994
2 24842  86.4417  95.8348 0012433 294.6908  65.3000 14.46079723388556
IRIDIUM 17 [-]          
1 24870U 97034B   23301.53713556  .00000661  00000+0  21813-3 0  9998
2 24870  86.3927 125.9100 0002869 124.4653 235.6815 14.36646904377747
IRIDIUM 920 [-]         
1 24871U 97034C   23301.52128116  .00000768  00000+0  23604-3 0  9998
2 24871  86.3928 106.5351 0009622 248.9535 111.0635 14.40364863380777
